IRIDIUM 150             
1 43257U 18030J   23360.36674649  .00000187  00000+0  59691-4 0  9991
2 43257  86.3965 308.1976 0002357  75.1215 285.0241 14.34216618300610
IRIDIUM 143             
1 43258U 18030K   23360.41750354  .00000528  00000+0  18134-3 0  9991
2 43258  86.3970 308.2328 0002074  78.7350 281.4079 14.34219053300552
IRIDIUM 161             
1 43478U 18047C   23360.37235999  .00000758  00000+0  21949-3 0  9994
2 43478  86.4495 106.2356 0002142  95.3476 264.7969 14.43279442294772
IRIDIUM 152             
1 43479U 18047D   23360.39020935  .00000293  00000+0  97476-4 0  9992
2 43479  86.3969 106.0876 0001744  98.6665 261.4728 14.34217425292943
IRIDIUM 147             
1 43480U 18047E   23360.39654900  .00000095  00000+0  27022-4 0  9999
2 43480  86.3970 106.0737 0002285 101.2057 258.9395 14.34214924292942
IRIDIUM 110             
1 43481U 18047F   23360.40289109  .00000420  00000+0  14308-3 0  9991
2 43481  86.3974 106.1395 0002418  99.2658 260.8811 14.34214812292939
IRIDIUM 162             
1 43482U 18047G   23360.36609318  .00000757  00000+0  21898-3 0  9990
2 43482  86.4494 106.1405 0002168  94.8521 265.2927 14.43277725294764
IRIDIUM 160             
1 43569U 18061A   23360.27896112  .00000463  00000+0  15826-3 0  9990
2 43569  86.3964  74.5454 0002016 109.2865 250.8549 14.34219396283811
